{"type": "FeatureCollection", "features": [ {"type": "Feature", "properties": {"norad_id": 39620, "name": "COSMOS 2492 (754)", "group": "gnss", "lat": -51.507850058906584, "lon": 175.61411370240103, "alt_km": 19124.191326220516, "timestamp": "2025-12-06T18:50:10.410160+00:00", "meta": {"OBJECT_NAME": "COSMOS 2492 (754)", "OBJECT_ID": "2014-012A", "EPOCH": "2025-12-02T17:14:30.403680", "MEAN_MOTION": 2.13103072, "ECCENTRICITY": 0.00141646, "INCLINATION": 65.4134, "RA_OF_ASC_NODE": 320.6107, "ARG_OF_PERICENTER": 311.0276, "MEAN_ANOMALY": 48.8557, "EPHEMERIS_TYPE": 0, "CLASSIFICATION_TYPE": "U", "NORAD_CAT_ID": 39620, "ELEMENT_SET_NO": 999, "REV_AT_EPOCH": 9105, "BSTAR": 0, "MEAN_MOTION_DOT": -3.6e-07, "MEAN_MOTION_DDOT": 0}, "tle": {"line1": "1 39620U 14012A   25336.71840745 -.00000036  00000+0  00000+0 0  9991", "line2": "2 39620  65.4134 320.6107 0014164 311.0276  48.8557  2.13103072 91051"}}, "geometry": {"type": "Point", "coordinates": [175.61411370240103, -51.507850058906584]}}, {"type": "Feature", "properties": {"norad_id": 39635, "name": "IRNSS-1B", "group": "gnss", "lat": 4.992575156891099, "lon": 54.61762866405333, "alt_km": 35711.858946831584, "timestamp": "2025-12-06T18:50:10.410171+00:00", "meta": {"OBJECT_NAME": "IRNSS-1B", "OBJECT_ID": "2014-017A", "EPOCH": "2025-12-04T19:28:38.496288", "MEAN_MOTION": 1.00275997, "ECCENTRICITY": 0.0017633, "INCLINATION": 28.8387, "RA_OF_ASC_NODE": 243.7276, "ARG_OF_PERICENTER": 183.5453, "MEAN_ANOMALY": 353.8193, "EPHEMERIS_TYPE": 0, "CLASSIFICATION_TYPE": "U", "NORAD_CAT_ID": 39635, "ELEMENT_SET_NO": 999, "REV_AT_EPOCH": 4284, "BSTAR": 0, "MEAN_MOTION_DOT": 1.26e-06, "MEAN_MOTION_DDOT": 0}, "tle": {"line1": "1 39635U 14017A   25338.81155667  .00000126  00000+0  00000+0 0  9996", "line2": "2 39635  28.8387 243.7276 0017633 183.5453 353.8193  1.00275997 42844"}}, "geometry": {"type": "Point", "coordinates": [54.61762866405333, 4.992575156891099]}}, {"type": "Feature", "properties": {"norad_id": 39727, "name": "LUCH 5V (SDCM/PRN 141)", "group": "gnss", "lat": 1.731439824630331, "lon": 93.06951982525193, "alt_km": 35805.63629036846, "timestamp": "2025-12-06T18:50:10.410182+00:00", "meta": {"OBJECT_NAME": "LUCH 5V (SDCM/PRN 141)", "OBJECT_ID": "2014-023A", "EPOCH": "2025-12-06T07:16:03.844992", "MEAN_MOTION": 1.00270891, "ECCENTRICITY": 0.00045983, "INCLINATION": 4.6526, "RA_OF_ASC_NODE": 71.5937, "ARG_OF_PERICENTER": 201.692, "MEAN_ANOMALY": 5.8537, "EPHEMERIS_TYPE": 0, "CLASSIFICATION_TYPE": "U", "NORAD_CAT_ID": 39727, "ELEMENT_SET_NO": 999, "REV_AT_EPOCH": 4242, "BSTAR": 0, "MEAN_MOTION_DOT": -2.64e-06, "MEAN_MOTION_DDOT": 0}, "tle": {"line1": "1 39727U 14023A   25340.30282228 -.00000264  00000+0  00000+0 0  9990", "line2": "2 39727   4.6526  71.5937 0004598 201.6920   5.8537  1.00270891 42429"}}, "geometry": {"type": "Point", "coordinates": [93.06951982525193, 1.731439824630331]}}, {"type": "Feature", "properties": {"norad_id": 39741, "name": "GPS BIIF-6  (PRN 06)", "group": "gnss", "lat": -14.323903905072923, "lon": 168.707750094295, "alt_km": 20237.496260697873, "timestamp": "2025-12-06T18:50:10.410193+00:00", "meta": {"OBJECT_NAME": "GPS BIIF-6  (PRN 06)", "OBJECT_ID": "2014-026A", "EPOCH": "2025-12-06T00:17:34.807488", "MEAN_MOTION": 2.00561679, "ECCENTRICITY": 0.00389955, "INCLINATION": 56.5861, "RA_OF_ASC_NODE": 339.0382, "ARG_OF_PERICENTER": 318.3017, "MEAN_ANOMALY": 41.4163, "EPHEMERIS_TYPE": 0, "CLASSIFICATION_TYPE": "U", "NORAD_CAT_ID": 39741, "ELEMENT_SET_NO": 999, "REV_AT_EPOCH": 8466, "BSTAR": 0, "MEAN_MOTION_DOT": -7.7e-07, "MEAN_MOTION_DDOT": 0}, "tle": {"line1": "1 39741U 14026A   25340.01220842 -.00000077  00000+0  00000+0 0  9993", "line2": "2 39741  56.5861 339.0382 0038995 318.3017  41.4163  2.00561679 84661"}}, "geometry": {"type": "Point", "coordinates": [168.707750094295, -14.323903905072923]}}, {"type": "Feature", "properties": {"norad_id": 40001, "name": "COSMOS 2500 (755)", "group": "gnss", "lat": 60.15257096257733, "lon": 87.06411509368571, "alt_km": 19130.804146282884, "timestamp": "2025-12-06T18:50:10.410204+00:00", "meta": {"OBJECT_NAME": "COSMOS 2500 (755)", "OBJECT_ID": "2014-032A", "EPOCH": "2025-12-06T04:12:43.562880", "MEAN_MOTION": 2.13105836, "ECCENTRICITY": 0.00082219, "INCLINATION": 65.3471, "RA_OF_ASC_NODE": 320.256, "ARG_OF_PERICENTER": 219.1808, "MEAN_ANOMALY": 140.7541, "EPHEMERIS_TYPE": 0, "CLASSIFICATION_TYPE": "U", "NORAD_CAT_ID": 40001, "ELEMENT_SET_NO": 999, "REV_AT_EPOCH": 8934, "BSTAR": 0, "MEAN_MOTION_DOT": -4.9e-07, "MEAN_MOTION_DDOT": 0}, "tle": {"line1": "1 40001U 14032A   25340.17550420 -.00000049  00000+0  00000+0 0  9995", "line2": "2 40001  65.3471 320.2560 0008221 219.1808 140.7541  2.13105836 89348"}}, "geometry": {"type": "Point", "coordinates": [87.06411509368571, 60.15257096257733]}}, {"type": "Feature", "properties": {"norad_id": 40105, "name": "GPS BIIF-7  (PRN 09)", "group": "gnss", "lat": 35.603907161109305, "lon": -113.6689250556352, "alt_km": 20092.806316418217, "timestamp": "2025-12-06T18:50:10.410215+00:00", "meta": {"OBJECT_NAME": "GPS BIIF-7  (PRN 09)", "OBJECT_ID": "2014-045A", "EPOCH": "2025-12-05T14:26:16.975968", "MEAN_MOTION": 2.00571979, "ECCENTRICITY": 0.00328896, "INCLINATION": 55.2248, "RA_OF_ASC_NODE": 96.1837, "ARG_OF_PERICENTER": 119.6741, "MEAN_ANOMALY": 240.6258, "EPHEMERIS_TYPE": 0, "CLASSIFICATION_TYPE": "U", "NORAD_CAT_ID": 40105, "ELEMENT_SET_NO": 999, "REV_AT_EPOCH": 8219, "BSTAR": 0, "MEAN_MOTION_DOT": -1.2e-07, "MEAN_MOTION_DDOT": 0}, "tle": {"line1": "1 40105U 14045A   25339.60158537 -.00000012  00000+0  00000+0 0  9993", "line2": "2 40105  55.2248  96.1837 0032889 119.6741 240.6258  2.00571979 82198"}}, "geometry": {"type": "Point", "coordinates": [-113.6689250556352, 35.603907161109305]}}, {"type": "Feature", "properties": {"norad_id": 40128, "name": "GSAT0201 (GALILEO 5)", "group": "gnss", "lat": -38.890447054363094, "lon": 145.59718473904653, "alt_km": 19018.290414517323, "timestamp": "2025-12-06T18:50:10.410227+00:00", "meta": {"OBJECT_NAME": "GSAT0201 (GALILEO 5)", "OBJECT_ID": "2014-050A", "EPOCH": "2025-12-03T05:25:23.717280", "MEAN_MOTION": 1.85519443, "ECCENTRICITY": 0.16470313, "INCLINATION": 49.088, "RA_OF_ASC_NODE": 281.4514, "ARG_OF_PERICENTER": 171.9194, "MEAN_ANOMALY": 191.1354, "EPHEMERIS_TYPE": 0, "CLASSIFICATION_TYPE": "U", "NORAD_CAT_ID": 40128, "ELEMENT_SET_NO": 999, "REV_AT_EPOCH": 7468, "BSTAR": 0, "MEAN_MOTION_DOT": -5.9e-07, "MEAN_MOTION_DDOT": 0}, "tle": {"line1": "1 40128U 14050A   25337.22596895 -.00000059  00000+0  00000+0 0  9994", "line2": "2 40128  49.0880 281.4514 1647031 171.9194 191.1354  1.85519443 74684"}}, "geometry": {"type": "Point", "coordinates": [145.59718473904653, -38.890447054363094]}}, {"type": "Feature", "properties": {"norad_id": 40129, "name": "GSAT0202 (GALILEO 6)", "group": "gnss", "lat": 25.50459483009713, "lon": -55.242065579531506, "alt_km": 24637.16224767412, "timestamp": "2025-12-06T18:50:10.410238+00:00", "meta": {"OBJECT_NAME": "GSAT0202 (GALILEO 6)", "OBJECT_ID": "2014-050B", "EPOCH": "2025-12-02T22:38:17.581056", "MEAN_MOTION": 1.8552031, "ECCENTRICITY": 0.1647571, "INCLINATION": 49.1042, "RA_OF_ASC_NODE": 280.5465, "ARG_OF_PERICENTER": 172.6616, "MEAN_ANOMALY": 190.1192, "EPHEMERIS_TYPE": 0, "CLASSIFICATION_TYPE": "U", "NORAD_CAT_ID": 40129, "ELEMENT_SET_NO": 999, "REV_AT_EPOCH": 7684, "BSTAR": 0, "MEAN_MOTION_DOT": -5.9e-07, "MEAN_MOTION_DDOT": 0}, "tle": {"line1": "1 40129U 14050B   25336.94325904 -.00000059  00000+0  00000+0 0  9994", "line2": "2 40129  49.1042 280.5465 1647571 172.6616 190.1192  1.85520310 76841"}}, "geometry": {"type": "Point", "coordinates": [-55.242065579531506, 25.50459483009713]}}, {"type": "Feature", "properties": {"norad_id": 40269, "name": "IRNSS-1C", "group": "gnss", "lat": -1.1710399197847325, "lon": 81.30961062484891, "alt_km": 35713.84484750407, "timestamp": "2025-12-06T18:50:10.410249+00:00", "meta": {"OBJECT_NAME": "IRNSS-1C", "OBJECT_ID": "2014-061A", "EPOCH": "2025-12-05T22:01:51.844224", "MEAN_MOTION": 1.00268822, "ECCENTRICITY": 0.0017832, "INCLINATION": 6.0235, "RA_OF_ASC_NODE": 92.7587, "ARG_OF_PERICENTER": 2.6252, "MEAN_ANOMALY": 32.995, "EPHEMERIS_TYPE": 0, "CLASSIFICATION_TYPE": "U", "NORAD_CAT_ID": 40269, "ELEMENT_SET_NO": 999, "REV_AT_EPOCH": 4075, "BSTAR": 0, "MEAN_MOTION_DOT": -1.54e-06, "MEAN_MOTION_DDOT": 0}, "tle": {"line1": "1 40269U 14061A   25339.91796116 -.00000154  00000+0  00000+0 0  9994", "line2": "2 40269   6.0235  92.7587 0017832   2.6252  32.9950  1.00268822 40758"}}, "geometry": {"type": "Point", "coordinates": [81.30961062484891, -1.1710399197847325]}}, {"type": "Feature", "properties": {"norad_id": 40294, "name": "GPS BIIF-8  (PRN 03)", "group": "gnss", "lat": -35.41275582100129, "lon": -113.94738212512824, "alt_km": 20332.319695876486, "timestamp": "2025-12-06T18:50:10.410263+00:00", "meta": {"OBJECT_NAME": "GPS BIIF-8  (PRN 03)", "OBJECT_ID": "2014-068A", "EPOCH": "2025-12-03T11:38:05.638272", "MEAN_MOTION": 2.00564094, "ECCENTRICITY": 0.00608191, "INCLINATION": 56.851, "RA_OF_ASC_NODE": 38.5042, "ARG_OF_PERICENTER": 69.3788, "MEAN_ANOMALY": 291.3251, "EPHEMERIS_TYPE": 0, "CLASSIFICATION_TYPE": "U", "NORAD_CAT_ID": 40294, "ELEMENT_SET_NO": 999, "REV_AT_EPOCH": 8128, "BSTAR": 0, "MEAN_MOTION_DOT": -6.5e-07, "MEAN_MOTION_DDOT": 0}, "tle": {"line1": "1 40294U 14068A   25337.48478748 -.00000065  00000+0  00000+0 0  9998", "line2": "2 40294  56.8510  38.5042 0060819  69.3788 291.3251  2.00564094 81285"}}, "geometry": {"type": "Point", "coordinates": [-113.94738212512824, -35.41275582100129]}}]}